[{"OBJECT_NAME":"STARLINK-36987","OBJECT_ID":"2026-059A","EPOCH":"2026-04-12T06:17:56.291712","MEAN_MOTION":15.80860462,"ECCENTRICITY":9.754e-5,"INCLINATION":53.1578,"RA_OF_ASC_NODE":194.6387,"ARG_OF_PERICENTER":30.5102,"MEAN_ANOMALY":329.5977,"EPHEMERIS_TYPE":0,"CLASSIFICATION_TYPE":"U","NORAD_CAT_ID":68321,"ELEMENT_SET_NO":999,"REV_AT_EPOCH":328,"BSTAR":0.0014299837,"MEAN_MOTION_DOT":0.0029109,"MEAN_MOTION_DDOT":0},{"OBJECT_NAME":"STARLINK-37088","OBJECT_ID":"2026-059B","EPOCH":"2026-04-12T04:44:44.196000","MEAN_MOTION":15.8086062,"ECCENTRICITY":7.923e-5,"INCLINATION":53.1577,"RA_OF_ASC_NODE":194.9443,"ARG_OF_PERICENTER":107.8963,"MEAN_ANOMALY":252.2146,"EPHEMERIS_TYPE":0,"CLASSIFICATION_TYPE":"U","NORAD_CAT_ID":68322,"ELEMENT_SET_NO":999,"REV_AT_EPOCH":327,"BSTAR":0.0006678901,"MEAN_MOTION_DOT":0.00133094,"MEAN_MOTION_DDOT":0},{"OBJECT_NAME":"STARLINK-36983","OBJECT_ID":"2026-059C","EPOCH":"2026-04-12T06:17:48.251328","MEAN_MOTION":15.78352554,"ECCENTRICITY":0.00049687,"INCLINATION":53.1577,"RA_OF_ASC_NODE":194.6378,"ARG_OF_PERICENTER":14.0296,"MEAN_ANOMALY":346.0863,"EPHEMERIS_TYPE":0,"CLASSIFICATION_TYPE":"U","NORAD_CAT_ID":68323,"ELEMENT_SET_NO":999,"REV_AT_EPOCH":328,"BSTAR":-0.0045324742,"MEAN_MOTION_DOT":-0.00734555,"MEAN_MOTION_DDOT":0},{"OBJECT_NAME":"STARLINK-37164","OBJECT_ID":"2026-059D","EPOCH":"2026-04-12T06:14:41.839872","MEAN_MOTION":15.8085615,"ECCENTRICITY":9.939e-5,"INCLINATION":53.1578,"RA_OF_ASC_NODE":194.6235,"ARG_OF_PERICENTER":130.3112,"MEAN_ANOMALY":229.7998,"EPHEMERIS_TYPE":0,"CLASSIFICATION_TYPE":"U","NORAD_CAT_ID":68324,"ELEMENT_SET_NO":999,"REV_AT_EPOCH":441,"BSTAR":0.00066340969,"MEAN_MOTION_DOT":0.00132154,"MEAN_MOTION_DDOT":0},{"OBJECT_NAME":"STARLINK-36309","OBJECT_ID":"2026-059E","EPOCH":"2026-04-12T06:13:36.931008","MEAN_MOTION":15.80841771,"ECCENTRICITY":6.544e-5,"INCLINATION":53.1579,"RA_OF_ASC_NODE":194.6182,"ARG_OF_PERICENTER":67.2235,"MEAN_ANOMALY":292.8857,"EPHEMERIS_TYPE":0,"CLASSIFICATION_TYPE":"U","NORAD_CAT_ID":68325,"ELEMENT_SET_NO":999,"REV_AT_EPOCH":328,"BSTAR":0.00055670813,"MEAN_MOTION_DOT":0.00110432,"MEAN_MOTION_DDOT":0},{"OBJECT_NAME":"STARLINK-37206","OBJECT_ID":"2026-059F","EPOCH":"2026-04-12T06:12:32.143104","MEAN_MOTION":15.8084936,"ECCENTRICITY":0.00011057,"INCLINATION":53.1582,"RA_OF_ASC_NODE":194.6134,"ARG_OF_PERICENTER":55.3463,"MEAN_ANOMALY":304.7664,"EPHEMERIS_TYPE":0,"CLASSIFICATION_TYPE":"U","NORAD_CAT_ID":68326,"ELEMENT_SET_NO":999,"REV_AT_EPOCH":328,"BSTAR":0.00051529428,"MEAN_MOTION_DOT":0.00102101,"MEAN_MOTION_DDOT":0},{"OBJECT_NAME":"STARLINK-37199","OBJECT_ID":"2026-059G","EPOCH":"2026-04-12T06:00:02.000160","MEAN_MOTION":15.6656047,"ECCENTRICITY":0.00013062,"INCLINATION":53.1599,"RA_OF_ASC_NODE":194.8204,"ARG_OF_PERICENTER":93.7426,"MEAN_ANOMALY":133.3773,"EPHEMERIS_TYPE":0,"CLASSIFICATION_TYPE":"U","NORAD_CAT_ID":68327,"ELEMENT_SET_NO":999,"REV_AT_EPOCH":443,"BSTAR":-0.020089734,"MEAN_MOTION_DOT":-0.01897483,"MEAN_MOTION_DDOT":0},{"OBJECT_NAME":"STARLINK-36245","OBJECT_ID":"2026-059H","EPOCH":"2026-04-12T06:09:17.752608","MEAN_MOTION":15.80858952,"ECCENTRICITY":0.00012942,"INCLINATION":53.1579,"RA_OF_ASC_NODE":194.5982,"ARG_OF_PERICENTER":125.9774,"MEAN_ANOMALY":234.1369,"EPHEMERIS_TYPE":0,"CLASSIFICATION_TYPE":"U","NORAD_CAT_ID":68328,"ELEMENT_SET_NO":999,"REV_AT_EPOCH":328,"BSTAR":0.00068040323,"MEAN_MOTION_DOT":0.00135631,"MEAN_MOTION_DDOT":0},{"OBJECT_NAME":"STARLINK-37204","OBJECT_ID":"2026-059J","EPOCH":"2026-04-12T06:00:02.000160","MEAN_MOTION":15.77077614,"ECCENTRICITY":8.802e-5,"INCLINATION":53.1594,"RA_OF_ASC_NODE":194.6461,"ARG_OF_PERICENTER":88.9287,"MEAN_ANOMALY":224.0893,"EPHEMERIS_TYPE":0,"CLASSIFICATION_TYPE":"U","NORAD_CAT_ID":68329,"ELEMENT_SET_NO":999,"REV_AT_EPOCH":443,"BSTAR":-0.01317449,"MEAN_MOTION_DOT":-0.01906359,"MEAN_MOTION_DDOT":0},{"OBJECT_NAME":"STARLINK-37001","OBJECT_ID":"2026-059K","EPOCH":"2026-04-12T06:00:02.000160","MEAN_MOTION":15.63919797,"ECCENTRICITY":0.00013341,"INCLINATION":53.1596,"RA_OF_ASC_NODE":194.8665,"ARG_OF_PERICENTER":89.2217,"MEAN_ANOMALY":115.3165,"EPHEMERIS_TYPE":0,"CLASSIFICATION_TYPE":"U","NORAD_CAT_ID":68330,"ELEMENT_SET_NO":999,"REV_AT_EPOCH":443,"BSTAR":-0.022266316,"MEAN_MOTION_DOT":-0.01891405,"MEAN_MOTION_DDOT":0},{"OBJECT_NAME":"STARLINK-36932","OBJECT_ID":"2026-059L","EPOCH":"2026-04-12T04:36:05.759712","MEAN_MOTION":15.80882491,"ECCENTRICITY":0.00010604,"INCLINATION":53.1578,"RA_OF_ASC_NODE":194.9045,"ARG_OF_PERICENTER":50.3117,"MEAN_ANOMALY":309.8,"EPHEMERIS_TYPE":0,"CLASSIFICATION_TYPE":"U","NORAD_CAT_ID":68331,"ELEMENT_SET_NO":999,"REV_AT_EPOCH":327,"BSTAR":0.00070238983,"MEAN_MOTION_DOT":0.00140264,"MEAN_MOTION_DDOT":0},{"OBJECT_NAME":"STARLINK-37205","OBJECT_ID":"2026-059M","EPOCH":"2026-04-12T06:00:02.000160","MEAN_MOTION":15.76972622,"ECCENTRICITY":8.699e-5,"INCLINATION":53.1597,"RA_OF_ASC_NODE":194.6113,"ARG_OF_PERICENTER":85.7706,"MEAN_ANOMALY":243.976,"EPHEMERIS_TYPE":0,"CLASSIFICATION_TYPE":"U","NORAD_CAT_ID":68332,"ELEMENT_SET_NO":999,"REV_AT_EPOCH":443,"BSTAR":-0.013254621,"MEAN_MOTION_DOT":-0.01908565,"MEAN_MOTION_DDOT":0},{"OBJECT_NAME":"STARLINK-37180","OBJECT_ID":"2026-059N","EPOCH":"2026-04-12T06:00:02.000160","MEAN_MOTION":15.61408069,"ECCENTRICITY":0.00012832,"INCLINATION":53.1594,"RA_OF_ASC_NODE":194.9199,"ARG_OF_PERICENTER":86.0412,"MEAN_ANOMALY":92.0691,"EPHEMERIS_TYPE":0,"CLASSIFICATION_TYPE":"U","NORAD_CAT_ID":68333,"ELEMENT_SET_NO":999,"REV_AT_EPOCH":443,"BSTAR":-0.024549211,"MEAN_MOTION_DOT":-0.01888818,"MEAN_MOTION_DDOT":0},{"OBJECT_NAME":"STARLINK-37191","OBJECT_ID":"2026-059P","EPOCH":"2026-04-12T06:00:02.000160","MEAN_MOTION":15.76776254,"ECCENTRICITY":8.969e-5,"INCLINATION":53.1595,"RA_OF_ASC_NODE":194.5948,"ARG_OF_PERICENTER":87.6073,"MEAN_ANOMALY":250.0158,"EPHEMERIS_TYPE":0,"CLASSIFICATION_TYPE":"U","NORAD_CAT_ID":68334,"ELEMENT_SET_NO":999,"REV_AT_EPOCH":443,"BSTAR":-0.013352203,"MEAN_MOTION_DOT":-0.01906136,"MEAN_MOTION_DDOT":0},{"OBJECT_NAME":"STARLINK-37217","OBJECT_ID":"2026-059Q","EPOCH":"2026-04-12T06:00:02.000160","MEAN_MOTION":15.75855949,"ECCENTRICITY":8.678e-5,"INCLINATION":53.1597,"RA_OF_ASC_NODE":194.5928,"ARG_OF_PERICENTER":87.5799,"MEAN_ANOMALY":250.6992,"EPHEMERIS_TYPE":0,"CLASSIFICATION_TYPE":"U","NORAD_CAT_ID":68335,"ELEMENT_SET_NO":999,"REV_AT_EPOCH":443,"BSTAR":-0.013915794,"MEAN_MOTION_DOT":-0.01906483,"MEAN_MOTION_DDOT":0},{"OBJECT_NAME":"STARLINK-37143","OBJECT_ID":"2026-059R","EPOCH":"2026-04-12T06:01:49.804032","MEAN_MOTION":15.80239274,"ECCENTRICITY":0.00013086,"INCLINATION":53.1578,"RA_OF_ASC_NODE":194.5626,"ARG_OF_PERICENTER":118.0954,"MEAN_ANOMALY":242.0201,"EPHEMERIS_TYPE":0,"CLASSIFICATION_TYPE":"U","NORAD_CAT_ID":68336,"ELEMENT_SET_NO":999,"REV_AT_EPOCH":328,"BSTAR":-0.0042396379,"MEAN_MOTION_DOT":-0.00746633,"MEAN_MOTION_DDOT":0}]
