STARLINK-36987          
1 68321U 26059A   26102.26245708  .00291090  00000+0  14300-2 0  9997
2 68321  53.1578 194.6387 0000975  30.5102 329.5977 15.80860462  3286
STARLINK-37088          
1 68322U 26059B   26102.19773375  .00133094  00000+0  66789-3 0  9994
2 68322  53.1577 194.9443 0000792 107.8963 252.2146 15.80860620  3277
STARLINK-36983          
1 68323U 26059C   26102.26236402 -.00734555  00000+0 -45325-2 0  9991
2 68323  53.1577 194.6378 0004968  14.0296 346.0863 15.78352554  3287
STARLINK-37164          
1 68324U 26059D   26102.26020648  .00132154  00000+0  66341-3 0  9992
2 68324  53.1578 194.6235 0000993 130.3112 229.7998 15.80856150  4410
STARLINK-36309          
1 68325U 26059E   26102.25945522  .00110432  00000+0  55671-3 0  9998
2 68325  53.1579 194.6182 0000654  67.2235 292.8857 15.80841771  3283
STARLINK-37206          
1 68326U 26059F   26102.25870536  .00102101  00000+0  51529-3 0  9993
2 68326  53.1582 194.6134 0001105  55.3463 304.7664 15.80849360  3289
STARLINK-37199          
1 68327U 26059G   26102.25002315 -.01897483  00000+0 -20090-1 0  9990
2 68327  53.1599 194.8204 0001306  93.7426 133.3773 15.66560470  4437
STARLINK-36245          
1 68328U 26059H   26102.25645547  .00135631  00000+0  68040-3 0  9997
2 68328  53.1579 194.5982 0001294 125.9774 234.1369 15.80858952  3280
STARLINK-37204          
1 68329U 26059J   26102.25002315 -.01906359  00000+0 -13174-1 0  9990
2 68329  53.1594 194.6461 0000880  88.9287 224.0893 15.77077614  4430
STARLINK-37001          
1 68330U 26059K   26102.25002315 -.01891405  00000+0 -22266-1 0  9999
2 68330  53.1596 194.8665 0001334  89.2217 115.3165 15.63919797  4430
STARLINK-36932          
1 68331U 26059L   26102.19173333  .00140264  00000+0  70239-3 0  9994
2 68331  53.1578 194.9045 0001060  50.3117 309.8000 15.80882491  3276
STARLINK-37205          
1 68332U 26059M   26102.25002315 -.01908565  00000+0 -13255-1 0  9995
2 68332  53.1597 194.6113 0000869  85.7706 243.9760 15.76972622  4434
STARLINK-37180          
1 68333U 26059N   26102.25002315 -.01888818  00000+0 -24549-1 0  9992
2 68333  53.1594 194.9199 0001283  86.0412  92.0691 15.61408069  4437
STARLINK-37191          
1 68334U 26059P   26102.25002315 -.01906136  00000+0 -13352-1 0  9997
2 68334  53.1595 194.5948 0000896  87.6073 250.0158 15.76776254  4430
STARLINK-37217          
1 68335U 26059Q   26102.25002315 -.01906483  00000+0 -13916-1 0  9999
2 68335  53.1597 194.5928 0000867  87.5799 250.6992 15.75855949  4433
STARLINK-37143          
1 68336U 26059R   26102.25127088 -.00746633  00000+0 -42396-2 0  9998
2 68336  53.1578 194.5626 0001308 118.0954 242.0201 15.80239274  3285
